STARLINK-36409          
1 67406U 26005C   26025.83336806 -.01446012  00000+0 -95034-2 0  9990
2 67406  43.0002 125.7893 0001599 287.6843 150.9840 15.77591820  3297
STARLINK-36510          
1 67407U 26005D   26025.83336806 -.01452460  00000+0 -95585-2 0  9996
2 67407  43.0001 125.7845 0001718 284.3361 156.3148 15.77574122  3293
STARLINK-36509          
1 67408U 26005E   26025.83336806 -.01461260  00000+0 -96488-2 0  9998
2 67408  43.0002 125.7788 0001383 284.8135 157.9286 15.77521313  3297
STARLINK-36507          
1 67409U 26005F   26025.83336806 -.01463158  00000+0 -96716-2 0  9991
2 67409  43.0000 125.7737 0001558 286.9039 157.8218 15.77499529  3297
STARLINK-36508          
1 67410U 26005G   26025.83336806 -.01470178  00000+0 -97488-2 0  9990
2 67410  43.0001 125.7687 0001487 285.1086 161.7036 15.77444679  3296
STARLINK-36503          
1 67411U 26005H   26025.83336806 -.01486110  00000+0 -98670-2 0  9998
2 67411  43.0001 125.7637 0001487 285.0123 163.7342 15.77448755  3036
STARLINK-36446          
1 67412U 26005J   26025.83336806 -.01483882  00000+0 -98695-2 0  9999
2 67412  43.0004 125.7586 0001581 284.6269 166.1554 15.77404430  3296
STARLINK-36442          
1 67413U 26005K   26025.83336806 -.01499322  00000+0 -10018-1 0  9998
2 67413  42.9998 125.7529 0001455 290.2249 162.6758 15.77335823  3291
STARLINK-36506          
1 67414U 26005L   26025.83336806 -.01511326  00000+0 -10112-1 0  9993
2 67414  43.0001 125.7478 0001327 285.8963 168.9556 15.77330632  3291
STARLINK-36468          
1 67415U 26005M   26025.83336806 -.01506782  00000+0 -10071-1 0  9998
2 67415  43.0001 125.7435 0001452 286.6977 170.0353 15.77343225  3244
STARLINK-36487          
1 67416U 26005N   26025.83336806 -.01506014  00000+0 -10074-1 0  9990
2 67416  42.9999 125.7384 0001540 292.0950 166.6053 15.77322844  3299
STARLINK-36374          
1 67417U 26005P   26025.83336806 -.01523164  00000+0 -10221-1 0  9990
2 67417  43.0001 125.7334 0001355 292.2455 168.4776 15.77291383  3292
