CCSDS_OMM_VERS = 2.0
CREATION_DATE  = 
ORIGINATOR     = 

OBJECT_NAME    = STARLINK-36409
OBJECT_ID      = 2026-005C
CENTER_NAME    = EARTH
REF_FRAME      = TEME
TIME_SYSTEM    = UTC
MEAN_ELEMENT_THEORY = SGP/SGP4

EPOCH          = 2026-01-25T20:00:03.000384
MEAN_MOTION    = 15.77591820
ECCENTRICITY   = .0001599
INCLINATION    = 43.0002
RA_OF_ASC_NODE = 125.7893
ARG_OF_PERICENTER = 287.6843
MEAN_ANOMALY   = 150.9840

EPHEMERIS_TYPE = 0
CLASSIFICATION_TYPE = U
NORAD_CAT_ID   = 67406
ELEMENT_SET_NO = 999
REV_AT_EPOCH   = 329
BSTAR          = -.95034E-2
MEAN_MOTION_DOT = -.1446012E-1
MEAN_MOTION_DDOT = 0

CCSDS_OMM_VERS = 2.0
CREATION_DATE  = 
ORIGINATOR     = 

OBJECT_NAME    = STARLINK-36510
OBJECT_ID      = 2026-005D
CENTER_NAME    = EARTH
REF_FRAME      = TEME
TIME_SYSTEM    = UTC
MEAN_ELEMENT_THEORY = SGP/SGP4

EPOCH          = 2026-01-25T20:00:03.000384
MEAN_MOTION    = 15.77574122
ECCENTRICITY   = .0001718
INCLINATION    = 43.0001
RA_OF_ASC_NODE = 125.7845
ARG_OF_PERICENTER = 284.3361
MEAN_ANOMALY   = 156.3148

EPHEMERIS_TYPE = 0
CLASSIFICATION_TYPE = U
NORAD_CAT_ID   = 67407
ELEMENT_SET_NO = 999
REV_AT_EPOCH   = 329
BSTAR          = -.95585E-2
MEAN_MOTION_DOT = -.145246E-1
MEAN_MOTION_DDOT = 0

CCSDS_OMM_VERS = 2.0
CREATION_DATE  = 
ORIGINATOR     = 

OBJECT_NAME    = STARLINK-36509
OBJECT_ID      = 2026-005E
CENTER_NAME    = EARTH
REF_FRAME      = TEME
TIME_SYSTEM    = UTC
MEAN_ELEMENT_THEORY = SGP/SGP4

EPOCH          = 2026-01-25T20:00:03.000384
MEAN_MOTION    = 15.77521313
ECCENTRICITY   = .0001383
INCLINATION    = 43.0002
RA_OF_ASC_NODE = 125.7788
ARG_OF_PERICENTER = 284.8135
MEAN_ANOMALY   = 157.9286

EPHEMERIS_TYPE = 0
CLASSIFICATION_TYPE = U
NORAD_CAT_ID   = 67408
ELEMENT_SET_NO = 999
REV_AT_EPOCH   = 329
BSTAR          = -.96488E-2
MEAN_MOTION_DOT = -.146126E-1
MEAN_MOTION_DDOT = 0

CCSDS_OMM_VERS = 2.0
CREATION_DATE  = 
ORIGINATOR     = 

OBJECT_NAME    = STARLINK-36507
OBJECT_ID      = 2026-005F
CENTER_NAME    = EARTH
REF_FRAME      = TEME
TIME_SYSTEM    = UTC
MEAN_ELEMENT_THEORY = SGP/SGP4

EPOCH          = 2026-01-25T20:00:03.000384
MEAN_MOTION    = 15.77499529
ECCENTRICITY   = .0001558
INCLINATION    = 43.0000
RA_OF_ASC_NODE = 125.7737
ARG_OF_PERICENTER = 286.9039
MEAN_ANOMALY   = 157.8218

EPHEMERIS_TYPE = 0
CLASSIFICATION_TYPE = U
NORAD_CAT_ID   = 67409
ELEMENT_SET_NO = 999
REV_AT_EPOCH   = 329
BSTAR          = -.96716E-2
MEAN_MOTION_DOT = -.1463158E-1
MEAN_MOTION_DDOT = 0

CCSDS_OMM_VERS = 2.0
CREATION_DATE  = 
ORIGINATOR     = 

OBJECT_NAME    = STARLINK-36508
OBJECT_ID      = 2026-005G
CENTER_NAME    = EARTH
REF_FRAME      = TEME
TIME_SYSTEM    = UTC
MEAN_ELEMENT_THEORY = SGP/SGP4

EPOCH          = 2026-01-25T20:00:03.000384
MEAN_MOTION    = 15.77444679
ECCENTRICITY   = .0001487
INCLINATION    = 43.0001
RA_OF_ASC_NODE = 125.7687
ARG_OF_PERICENTER = 285.1086
MEAN_ANOMALY   = 161.7036

EPHEMERIS_TYPE = 0
CLASSIFICATION_TYPE = U
NORAD_CAT_ID   = 67410
ELEMENT_SET_NO = 999
REV_AT_EPOCH   = 329
BSTAR          = -.97488E-2
MEAN_MOTION_DOT = -.1470178E-1
MEAN_MOTION_DDOT = 0

CCSDS_OMM_VERS = 2.0
CREATION_DATE  = 
ORIGINATOR     = 

OBJECT_NAME    = STARLINK-36503
OBJECT_ID      = 2026-005H
CENTER_NAME    = EARTH
REF_FRAME      = TEME
TIME_SYSTEM    = UTC
MEAN_ELEMENT_THEORY = SGP/SGP4

EPOCH          = 2026-01-25T20:00:03.000384
MEAN_MOTION    = 15.77448755
ECCENTRICITY   = .0001487
INCLINATION    = 43.0001
RA_OF_ASC_NODE = 125.7637
ARG_OF_PERICENTER = 285.0123
MEAN_ANOMALY   = 163.7342

EPHEMERIS_TYPE = 0
CLASSIFICATION_TYPE = U
NORAD_CAT_ID   = 67411
ELEMENT_SET_NO = 999
REV_AT_EPOCH   = 303
BSTAR          = -.9867E-2
MEAN_MOTION_DOT = -.148611E-1
MEAN_MOTION_DDOT = 0

CCSDS_OMM_VERS = 2.0
CREATION_DATE  = 
ORIGINATOR     = 

OBJECT_NAME    = STARLINK-36446
OBJECT_ID      = 2026-005J
CENTER_NAME    = EARTH
REF_FRAME      = TEME
TIME_SYSTEM    = UTC
MEAN_ELEMENT_THEORY = SGP/SGP4

EPOCH          = 2026-01-25T20:00:03.000384
MEAN_MOTION    = 15.77404430
ECCENTRICITY   = .0001581
INCLINATION    = 43.0004
RA_OF_ASC_NODE = 125.7586
ARG_OF_PERICENTER = 284.6269
MEAN_ANOMALY   = 166.1554

EPHEMERIS_TYPE = 0
CLASSIFICATION_TYPE = U
NORAD_CAT_ID   = 67412
ELEMENT_SET_NO = 999
REV_AT_EPOCH   = 329
BSTAR          = -.98695E-2
MEAN_MOTION_DOT = -.1483882E-1
MEAN_MOTION_DDOT = 0

CCSDS_OMM_VERS = 2.0
CREATION_DATE  = 
ORIGINATOR     = 

OBJECT_NAME    = STARLINK-36442
OBJECT_ID      = 2026-005K
CENTER_NAME    = EARTH
REF_FRAME      = TEME
TIME_SYSTEM    = UTC
MEAN_ELEMENT_THEORY = SGP/SGP4

EPOCH          = 2026-01-25T20:00:03.000384
MEAN_MOTION    = 15.77335823
ECCENTRICITY   = .0001455
INCLINATION    = 42.9998
RA_OF_ASC_NODE = 125.7529
ARG_OF_PERICENTER = 290.2249
MEAN_ANOMALY   = 162.6758

EPHEMERIS_TYPE = 0
CLASSIFICATION_TYPE = U
NORAD_CAT_ID   = 67413
ELEMENT_SET_NO = 999
REV_AT_EPOCH   = 329
BSTAR          = -.10018E-1
MEAN_MOTION_DOT = -.1499322E-1
MEAN_MOTION_DDOT = 0

CCSDS_OMM_VERS = 2.0
CREATION_DATE  = 
ORIGINATOR     = 

OBJECT_NAME    = STARLINK-36506
OBJECT_ID      = 2026-005L
CENTER_NAME    = EARTH
REF_FRAME      = TEME
TIME_SYSTEM    = UTC
MEAN_ELEMENT_THEORY = SGP/SGP4

EPOCH          = 2026-01-25T20:00:03.000384
MEAN_MOTION    = 15.77330632
ECCENTRICITY   = .0001327
INCLINATION    = 43.0001
RA_OF_ASC_NODE = 125.7478
ARG_OF_PERICENTER = 285.8963
MEAN_ANOMALY   = 168.9556

EPHEMERIS_TYPE = 0
CLASSIFICATION_TYPE = U
NORAD_CAT_ID   = 67414
ELEMENT_SET_NO = 999
REV_AT_EPOCH   = 329
BSTAR          = -.10112E-1
MEAN_MOTION_DOT = -.1511326E-1
MEAN_MOTION_DDOT = 0

CCSDS_OMM_VERS = 2.0
CREATION_DATE  = 
ORIGINATOR     = 

OBJECT_NAME    = STARLINK-36468
OBJECT_ID      = 2026-005M
CENTER_NAME    = EARTH
REF_FRAME      = TEME
TIME_SYSTEM    = UTC
MEAN_ELEMENT_THEORY = SGP/SGP4

EPOCH          = 2026-01-25T20:00:03.000384
MEAN_MOTION    = 15.77343225
ECCENTRICITY   = .0001452
INCLINATION    = 43.0001
RA_OF_ASC_NODE = 125.7435
ARG_OF_PERICENTER = 286.6977
MEAN_ANOMALY   = 170.0353

EPHEMERIS_TYPE = 0
CLASSIFICATION_TYPE = U
NORAD_CAT_ID   = 67415
ELEMENT_SET_NO = 999
REV_AT_EPOCH   = 324
BSTAR          = -.10071E-1
MEAN_MOTION_DOT = -.1506782E-1
MEAN_MOTION_DDOT = 0

CCSDS_OMM_VERS = 2.0
CREATION_DATE  = 
ORIGINATOR     = 

OBJECT_NAME    = STARLINK-36487
OBJECT_ID      = 2026-005N
CENTER_NAME    = EARTH
REF_FRAME      = TEME
TIME_SYSTEM    = UTC
MEAN_ELEMENT_THEORY = SGP/SGP4

EPOCH          = 2026-01-25T20:00:03.000384
MEAN_MOTION    = 15.77322844
ECCENTRICITY   = .000154
INCLINATION    = 42.9999
RA_OF_ASC_NODE = 125.7384
ARG_OF_PERICENTER = 292.0950
MEAN_ANOMALY   = 166.6053

EPHEMERIS_TYPE = 0
CLASSIFICATION_TYPE = U
NORAD_CAT_ID   = 67416
ELEMENT_SET_NO = 999
REV_AT_EPOCH   = 329
BSTAR          = -.10074E-1
MEAN_MOTION_DOT = -.1506014E-1
MEAN_MOTION_DDOT = 0

CCSDS_OMM_VERS = 2.0
CREATION_DATE  = 
ORIGINATOR     = 

OBJECT_NAME    = STARLINK-36374
OBJECT_ID      = 2026-005P
CENTER_NAME    = EARTH
REF_FRAME      = TEME
TIME_SYSTEM    = UTC
MEAN_ELEMENT_THEORY = SGP/SGP4

EPOCH          = 2026-01-25T20:00:03.000384
MEAN_MOTION    = 15.77291383
ECCENTRICITY   = .0001355
INCLINATION    = 43.0001
RA_OF_ASC_NODE = 125.7334
ARG_OF_PERICENTER = 292.2455
MEAN_ANOMALY   = 168.4776

EPHEMERIS_TYPE = 0
CLASSIFICATION_TYPE = U
NORAD_CAT_ID   = 67417
ELEMENT_SET_NO = 999
REV_AT_EPOCH   = 329
BSTAR          = -.10221E-1
MEAN_MOTION_DOT = -.1523164E-1
MEAN_MOTION_DDOT = 0

